CCSDS_OMM_VERS = 2.0
CREATION_DATE  = 
ORIGINATOR     = 

OBJECT_NAME    = COSMOS 2151
OBJECT_ID      = 1991-042A
CENTER_NAME    = EARTH
REF_FRAME      = TEME
TIME_SYSTEM    = UTC
MEAN_ELEMENT_THEORY = SGP/SGP4

EPOCH          = 2025-11-25T09:47:58.205184
MEAN_MOTION    = 14.99595559
ECCENTRICITY   = .0013945
INCLINATION    = 82.4968
RA_OF_ASC_NODE = 184.2031
ARG_OF_PERICENTER = 55.0090
MEAN_ANOMALY   = 305.2441

EPHEMERIS_TYPE = 0
CLASSIFICATION_TYPE = U
NORAD_CAT_ID   = 21422
ELEMENT_SET_NO = 999
REV_AT_EPOCH   = 84756
BSTAR          = .20663E-3
MEAN_MOTION_DOT = .2573E-4
MEAN_MOTION_DDOT = 0

CCSDS_OMM_VERS = 2.0
CREATION_DATE  = 
ORIGINATOR     = 

OBJECT_NAME    = SL-14 R/B
OBJECT_ID      = 1991-042B
CENTER_NAME    = EARTH
REF_FRAME      = TEME
TIME_SYSTEM    = UTC
MEAN_ELEMENT_THEORY = SGP/SGP4

EPOCH          = 2025-11-25T10:14:22.388064
MEAN_MOTION    = 14.81715312
ECCENTRICITY   = .0015971
INCLINATION    = 82.4915
RA_OF_ASC_NODE = 317.9604
ARG_OF_PERICENTER = 219.6863
MEAN_ANOMALY   = 140.3184

EPHEMERIS_TYPE = 0
CLASSIFICATION_TYPE = U
NORAD_CAT_ID   = 21423
ELEMENT_SET_NO = 999
REV_AT_EPOCH   = 83763
BSTAR          = .68938E-4
MEAN_MOTION_DOT = .567E-5
MEAN_MOTION_DDOT = 0

CCSDS_OMM_VERS = 2.0
CREATION_DATE  = 
ORIGINATOR     = 

OBJECT_NAME    = ARIANE 40 R/B
OBJECT_ID      = 1991-050F
CENTER_NAME    = EARTH
REF_FRAME      = TEME
TIME_SYSTEM    = UTC
MEAN_ELEMENT_THEORY = SGP/SGP4

EPOCH          = 2025-11-25T04:07:04.423008
MEAN_MOTION    = 14.42791708
ECCENTRICITY   = .0003816
INCLINATION    = 98.2189
RA_OF_ASC_NODE = 20.2342
ARG_OF_PERICENTER = 48.5841
MEAN_ANOMALY   = 311.5677

EPHEMERIS_TYPE = 0
CLASSIFICATION_TYPE = U
NORAD_CAT_ID   = 21610
ELEMENT_SET_NO = 999
REV_AT_EPOCH   = 80392
BSTAR          = .14515E-3
MEAN_MOTION_DOT = .442E-5
MEAN_MOTION_DDOT = 0

CCSDS_OMM_VERS = 2.0
CREATION_DATE  = 
ORIGINATOR     = 

OBJECT_NAME    = INTERCOSMOS 25
OBJECT_ID      = 1991-086A
CENTER_NAME    = EARTH
REF_FRAME      = TEME
TIME_SYSTEM    = UTC
MEAN_ELEMENT_THEORY = SGP/SGP4

EPOCH          = 2025-11-25T09:07:12.171072
MEAN_MOTION    = 12.11641879
ECCENTRICITY   = .1487484
INCLINATION    = 82.6068
RA_OF_ASC_NODE = 13.0728
ARG_OF_PERICENTER = 341.8268
MEAN_ANOMALY   = 13.4604

EPHEMERIS_TYPE = 0
CLASSIFICATION_TYPE = U
NORAD_CAT_ID   = 21819
ELEMENT_SET_NO = 999
REV_AT_EPOCH   = 48405
BSTAR          = .23477E-3
MEAN_MOTION_DOT = .1195E-4
MEAN_MOTION_DDOT = 0

CCSDS_OMM_VERS = 2.0
CREATION_DATE  = 
ORIGINATOR     = 

OBJECT_NAME    = SL-8 R/B
OBJECT_ID      = 1992-008B
CENTER_NAME    = EARTH
REF_FRAME      = TEME
TIME_SYSTEM    = UTC
MEAN_ELEMENT_THEORY = SGP/SGP4

EPOCH          = 2025-11-25T10:57:02.311200
MEAN_MOTION    = 13.75953491
ECCENTRICITY   = .0035999
INCLINATION    = 82.9268
RA_OF_ASC_NODE = 345.3036
ARG_OF_PERICENTER = 66.9152
MEAN_ANOMALY   = 48.8903

EPHEMERIS_TYPE = 0
CLASSIFICATION_TYPE = U
NORAD_CAT_ID   = 21876
ELEMENT_SET_NO = 999
REV_AT_EPOCH   = 69508
BSTAR          = .13539E-3
MEAN_MOTION_DOT = .147E-5
MEAN_MOTION_DDOT = 0

CCSDS_OMM_VERS = 2.0
CREATION_DATE  = 
ORIGINATOR     = 

OBJECT_NAME    = SL-8 R/B
OBJECT_ID      = 1992-020B
CENTER_NAME    = EARTH
REF_FRAME      = TEME
TIME_SYSTEM    = UTC
MEAN_ELEMENT_THEORY = SGP/SGP4

EPOCH          = 2025-11-25T11:30:11.543328
MEAN_MOTION    = 13.75523727
ECCENTRICITY   = .0027863
INCLINATION    = 82.9316
RA_OF_ASC_NODE = 231.1331
ARG_OF_PERICENTER = 227.2615
MEAN_ANOMALY   = 309.1415

EPHEMERIS_TYPE = 0
CLASSIFICATION_TYPE = U
NORAD_CAT_ID   = 21938
ELEMENT_SET_NO = 999
REV_AT_EPOCH   = 68680
BSTAR          = .72665E-4
MEAN_MOTION_DOT = .85E-6
MEAN_MOTION_DDOT = 0

CCSDS_OMM_VERS = 2.0
CREATION_DATE  = 
ORIGINATOR     = 

OBJECT_NAME    = USA 81
OBJECT_ID      = 1992-023A
CENTER_NAME    = EARTH
REF_FRAME      = TEME
TIME_SYSTEM    = UTC
MEAN_ELEMENT_THEORY = SGP/SGP4

EPOCH          = 2025-11-25T03:35:50.115840
MEAN_MOTION    = 14.32317875
ECCENTRICITY   = .0002225
INCLINATION    = 85.0096
RA_OF_ASC_NODE = 191.7194
ARG_OF_PERICENTER = 66.6196
MEAN_ANOMALY   = 293.5231

EPHEMERIS_TYPE = 0
CLASSIFICATION_TYPE = U
NORAD_CAT_ID   = 21949
ELEMENT_SET_NO = 999
REV_AT_EPOCH   = 7982
BSTAR          = .74117E-4
MEAN_MOTION_DOT = .22E-5
MEAN_MOTION_DDOT = 0

CCSDS_OMM_VERS = 2.0
CREATION_DATE  = 
ORIGINATOR     = 

OBJECT_NAME    = COSMOS 2219
OBJECT_ID      = 1992-076A
CENTER_NAME    = EARTH
REF_FRAME      = TEME
TIME_SYSTEM    = UTC
MEAN_ELEMENT_THEORY = SGP/SGP4

EPOCH          = 2025-11-25T02:39:09.880128
MEAN_MOTION    = 14.14066673
ECCENTRICITY   = .0018488
INCLINATION    = 71.0607
RA_OF_ASC_NODE = 236.6828
ARG_OF_PERICENTER = 351.9277
MEAN_ANOMALY   = 8.1545

EPHEMERIS_TYPE = 0
CLASSIFICATION_TYPE = U
NORAD_CAT_ID   = 22219
ELEMENT_SET_NO = 999
REV_AT_EPOCH   = 70359
BSTAR          = -.65885E-4
MEAN_MOTION_DOT = -.173E-5
MEAN_MOTION_DDOT = 0

CCSDS_OMM_VERS = 2.0
CREATION_DATE  = 
ORIGINATOR     = 

OBJECT_NAME    = SL-16 R/B
OBJECT_ID      = 1992-076B
CENTER_NAME    = EARTH
REF_FRAME      = TEME
TIME_SYSTEM    = UTC
MEAN_ELEMENT_THEORY = SGP/SGP4

EPOCH          = 2025-11-25T11:54:34.864704
MEAN_MOTION    = 14.16837288
ECCENTRICITY   = .0015101
INCLINATION    = 71.0013
RA_OF_ASC_NODE = 47.8541
ARG_OF_PERICENTER = 256.4448
MEAN_ANOMALY   = 193.3305

EPHEMERIS_TYPE = 0
CLASSIFICATION_TYPE = U
NORAD_CAT_ID   = 22220
ELEMENT_SET_NO = 999
REV_AT_EPOCH   = 70707
BSTAR          = .16385E-3
MEAN_MOTION_DOT = .281E-5
MEAN_MOTION_DDOT = 0

CCSDS_OMM_VERS = 2.0
CREATION_DATE  = 
ORIGINATOR     = 

OBJECT_NAME    = SL-16 R/B
OBJECT_ID      = 1992-093B
CENTER_NAME    = EARTH
REF_FRAME      = TEME
TIME_SYSTEM    = UTC
MEAN_ELEMENT_THEORY = SGP/SGP4

EPOCH          = 2025-11-25T10:18:41.186304
MEAN_MOTION    = 14.15427666
ECCENTRICITY   = .0002049
INCLINATION    = 71.0214
RA_OF_ASC_NODE = 223.1315
ARG_OF_PERICENTER = 123.4854
MEAN_ANOMALY   = 236.6465

EPHEMERIS_TYPE = 0
CLASSIFICATION_TYPE = U
NORAD_CAT_ID   = 22285
ELEMENT_SET_NO = 999
REV_AT_EPOCH   = 69840
BSTAR          = -.66371E-4
MEAN_MOTION_DOT = -.177E-5
MEAN_MOTION_DDOT = 0

