COSMOS 2151             
1 21422U 91042A   25329.40831256  .00002573  00000+0  20663-3 0  9993
2 21422  82.4968 184.2031 0013945  55.0090 305.2441 14.99595559847560
SL-14 R/B               
1 21423U 91042B   25329.42664801  .00000567  00000+0  68938-4 0  9995
2 21423  82.4915 317.9604 0015971 219.6863 140.3184 14.81715312837632
ARIANE 40 R/B           
1 21610U 91050F   25329.17157898  .00000442  00000+0  14515-3 0  9990
2 21610  98.2189  20.2342 0003816  48.5841 311.5677 14.42791708803925
INTERCOSMOS 25          
1 21819U 91086A   25329.38000198  .00001195  00000+0  23477-3 0  9996
2 21819  82.6068  13.0728 1487484 341.8268  13.4604 12.11641879484051
SL-8 R/B                
1 21876U 92008B   25329.45627675  .00000147  00000+0  13539-3 0  9991
2 21876  82.9268 345.3036 0035999  66.9152  48.8903 13.75953491695086
SL-8 R/B                
1 21938U 92020B   25329.47930027  .00000085  00000+0  72665-4 0  9991
2 21938  82.9316 231.1331 0027863 227.2615 309.1415 13.75523727686802
USA 81                  
1 21949U 92023A   25329.14988561  .00000220  00000+0  74117-4 0  9991
2 21949  85.0096 191.7194 0002224  66.6196 293.5231 14.32317875 79823
COSMOS 2219             
1 22219U 92076A   25329.11053103 -.00000173  00000+0 -65885-4 0  9993
2 22219  71.0607 236.6828 0018487 351.9277   8.1545 14.14066674703592
SL-16 R/B               
1 22220U 92076B   25329.49623686  .00000281  00000+0  16385-3 0  9993
2 22220  71.0013  47.8541 0015101 256.4448 193.3305 14.16837288707075
SL-16 R/B               
1 22285U 92093B   25329.42964336 -.00000177  00000+0 -66371-4 0  9993
2 22285  71.0214 223.1315 0002049 123.4854 236.6465 14.15427666698406
